IRIDIUM 116             
1 43072U 17083C   23346.13104940  .00000197  00000+0  63395-4 0  9991
2 43072  86.3962 345.7041 0002115  85.3629 274.7809 14.34216668312585
IRIDIUM 130             
1 43073U 17083D   23345.95982412  .00000240  00000+0  78777-4 0  9998
2 43073  86.3969 345.9623 0002321  90.2861 269.8601 14.34213893312507
IRIDIUM 151             
1 43074U 17083E   23345.93444926  .00000233  00000+0  76080-4 0  9997
2 43074  86.3962 345.8239 0001975  95.7016 264.4405 14.34214679312527
IRIDIUM 134             
1 43075U 17083F   23346.46088602  .00000266  00000+0  87755-4 0  9999
2 43075  86.3963 345.5987 0002361  88.4773 271.6693 14.34214955312565
IRIDIUM 137             
1 43076U 17083G   23345.91542273  .00000228  00000+0  74258-4 0  9990
2 43076  86.3966 345.9016 0001900  84.6485 275.4927 14.34214713312555
IRIDIUM 141             
1 43077U 17083H   23346.04860768  .00000243  00000+0  79855-4 0  9993
2 43077  86.3962 345.7284 0002165  95.2304 264.9138 14.34218908312578
IRIDIUM 153             
1 43078U 17083J   23346.41940289  .00000280  00000+0  92781-4 0  9996
2 43078  86.3953 314.0247 0002327 100.3349 259.8109 14.34216161313733
IRIDIUM 131             
1 43079U 17083K   23345.54754649  .00000275  00000+0  91316-4 0  9990
2 43079  86.3966 346.0628 0002155  93.6625 266.4817 14.34215294312438
